[
    {
        "Altitude(m)": 565710.9612795478,
        "Argument of Periapsis(deg)": -0.022603160782972403,
        "Eccentricity": 0.0,
        "Inclination(deg)": 97.0,
        "Latitude(deg)": 13.885970553946333,
        "Longitude(deg)": 139.38509600955638,
        "Mean Anomaly(deg)": 165.9969432691875,
        "RAAN(deg)": 60.005947053618506,
        "Satellite Name": "Starlink Shell 3 1721",
        "Satellite Number": 1721,
        "Semi-Major Axis(m)": 6938478.169268562,
        "Time(s)": 570
    },
    {
        "Altitude(m)": 565699.8097772858,
        "Argument of Periapsis(deg)": -0.02299970746337543,
        "Eccentricity": 0.0,
        "Inclination(deg)": 97.0,
        "Latitude(deg)": 13.261972497066829,
        "Longitude(deg)": 139.26274218007018,
        "Mean Anomaly(deg)": 166.62241946689255,
        "RAAN(deg)": 60.00605138789252,
        "Satellite Name": "Starlink Shell 3 1721",
        "Satellite Number": 1721,
        "Semi-Major Axis(m)": 6938478.169268562,
        "Time(s)": 580
    },
    {
        "Altitude(m)": 565692.7009345621,
        "Argument of Periapsis(deg)": -0.023396254143778456,
        "Eccentricity": 0.0,
        "Inclination(deg)": 97.0,
        "Latitude(deg)": 12.637924739860058,
        "Longitude(deg)": 139.14079852383352,
        "Mean Anomaly(deg)": 167.2478956645976,
        "RAAN(deg)": 60.006155722166525,
        "Satellite Name": "Starlink Shell 3 1721",
        "Satellite Number": 1721,
        "Semi-Major Axis(m)": 6938478.169268562,
        "Time(s)": 590
    },
    {
        "Altitude(m)": 565689.6667388007,
        "Argument of Periapsis(deg)": -0.023792800824181483,
        "Eccentricity": 0.0,
        "Inclination(deg)": 97.0,
        "Latitude(deg)": 12.013830360596193,
        "Longitude(deg)": 139.01924308853884,
        "Mean Anomaly(deg)": 167.87337186230263,
        "RAAN(deg)": 60.00626005644054,
        "Satellite Name": "Starlink Shell 3 1721",
        "Satellite Number": 1721,
        "Semi-Major Axis(m)": 6938478.169268562,
        "Time(s)": 600
    },
    {
        "Altitude(m)": 565690.7372773774,
        "Argument of Periapsis(deg)": -0.024189347504584503,
        "Eccentricity": 0.0,
        "Inclination(deg)": 97.0,
        "Latitude(deg)": 11.389692430217048,
        "Longitude(deg)": 138.89805431082667,
        "Mean Anomaly(deg)": 168.49884806000767,
        "RAAN(deg)": 60.00636439071455,
        "Satellite Name": "Starlink Shell 3 1721",
        "Satellite Number": 1721,
        "Semi-Major Axis(m)": 6938478.169268562,
        "Time(s)": 610
    },
    {
        "Altitude(m)": 565695.9407190535,
        "Argument of Periapsis(deg)": -0.02458589418498753,
        "Eccentricity": 0.0,
        "Inclination(deg)": 97.0,
        "Latitude(deg)": 10.765514012943088,
        "Longitude(deg)": 138.77721149668983,
        "Mean Anomaly(deg)": 169.12432425771274,
        "RAAN(deg)": 60.00646872498855,
        "Satellite Name": "Starlink Shell 3 1721",
        "Satellite Number": 1721,
        "Semi-Major Axis(m)": 6938478.169268562,
        "Time(s)": 620
    },
    {
        "Altitude(m)": 565705.3032964113,
        "Argument of Periapsis(deg)": -0.024982440865390556,
        "Eccentricity": 0.0,
        "Inclination(deg)": 97.0,
        "Latitude(deg)": 10.141298166823841,
        "Longitude(deg)": 138.6566936216877,
        "Mean Anomaly(deg)": 169.7498004554178,
        "RAAN(deg)": 60.00657305926256,
        "Satellite Name": "Starlink Shell 3 1721",
        "Satellite Number": 1721,
        "Semi-Major Axis(m)": 6938478.169268562,
        "Time(s)": 630
    },
    {
        "Altitude(m)": 565718.8492891995,
        "Argument of Periapsis(deg)": -0.025378987545793576,
        "Eccentricity": 0.0,
        "Inclination(deg)": 97.0,
        "Latitude(deg)": 9.517047944232404,
        "Longitude(deg)": 138.53648065334238,
        "Mean Anomaly(deg)": 170.3752766531228,
        "RAAN(deg)": 60.00667739353657,
        "Satellite Name": "Starlink Shell 3 1721",
        "Satellite Number": 1721,
        "Semi-Major Axis(m)": 6938478.169268562,
        "Time(s)": 640
    },
    {
        "Altitude(m)": 565736.601008715,
        "Argument of Periapsis(deg)": -0.025775534226196602,
        "Eccentricity": 0.0,
        "Inclination(deg)": 97.0,
        "Latitude(deg)": 8.892766392311687,
        "Longitude(deg)": 138.41655235275,
        "Mean Anomaly(deg)": 171.00075285082778,
        "RAAN(deg)": 60.006781727810576,
        "Satellite Name": "Starlink Shell 3 1721",
        "Satellite Number": 1721,
        "Semi-Major Axis(m)": 6938478.169268562,
        "Time(s)": 650
    },
    {
        "Altitude(m)": 565758.5787831296,
        "Argument of Periapsis(deg)": -0.026172080906599626,
        "Eccentricity": 0.0,
        "Inclination(deg)": 97.0,
        "Latitude(deg)": 8.2684565533733,
        "Longitude(deg)": 138.29688875778632,
        "Mean Anomaly(deg)": 171.62622904853293,
        "RAAN(deg)": 60.00688606208459,
        "Satellite Name": "Starlink Shell 3 1721",
        "Satellite Number": 1721,
        "Semi-Major Axis(m)": 6938478.169268562,
        "Time(s)": 660
    },
    {
        "Altitude(m)": 565784.8009438621,
        "Argument of Periapsis(deg)": -0.026568627587002652,
        "Eccentricity": 0.0,
        "Inclination(deg)": 97.0,
        "Latitude(deg)": 7.6441214652529155,
        "Longitude(deg)": 138.17747066688543,
        "Mean Anomaly(deg)": 172.25170524623792,
        "RAAN(deg)": 60.0069903963586,
        "Satellite Name": "Starlink Shell 3 1721",
        "Satellite Number": 1721,
        "Semi-Major Axis(m)": 6938478.169268562,
        "Time(s)": 670
    },
    {
        "Altitude(m)": 565815.2838128973,
        "Argument of Periapsis(deg)": -0.02696517426740568,
        "Eccentricity": 0.0,
        "Inclination(deg)": 97.0,
        "Latitude(deg)": 7.019764161627731,
        "Longitude(deg)": 138.05827861047314,
        "Mean Anomaly(deg)": 172.87718144394302,
        "RAAN(deg)": 60.0070947306326,
        "Satellite Name": "Starlink Shell 3 1721",
        "Satellite Number": 1721,
        "Semi-Major Axis(m)": 6938478.169268562,
        "Time(s)": 680
    },
    {
        "Altitude(m)": 565850.0416911652,
        "Argument of Periapsis(deg)": -0.0273617209478087,
        "Eccentricity": 0.0,
        "Inclination(deg)": 97.0,
        "Latitude(deg)": 6.395387672296187,
        "Longitude(deg)": 137.93929333575818,
        "Mean Anomaly(deg)": 173.50265764164806,
        "RAAN(deg)": 60.00719906490661,
        "Satellite Name": "Starlink Shell 3 1721",
        "Satellite Number": 1721,
        "Semi-Major Axis(m)": 6938478.169268562,
        "Time(s)": 690
    },
    {
        "Altitude(m)": 565889.0868479197,
        "Argument of Periapsis(deg)": -0.027758267628211725,
        "Eccentricity": 0.0,
        "Inclination(deg)": 97.0,
        "Latitude(deg)": 5.77099502342421,
        "Longitude(deg)": 137.82049629196436,
        "Mean Anomaly(deg)": 174.12813383935304,
        "RAAN(deg)": 60.00730339918062,
        "Satellite Name": "Starlink Shell 3 1721",
        "Satellite Number": 1721,
        "Semi-Major Axis(m)": 6938478.169268562,
        "Time(s)": 700
    },
    {
        "Altitude(m)": 565932.4295111765,
        "Argument of Periapsis(deg)": -0.028154814308614752,
        "Eccentricity": 0.0,
        "Inclination(deg)": 97.0,
        "Latitude(deg)": 5.146589237762852,
        "Longitude(deg)": 137.7018686030898,
        "Mean Anomaly(deg)": 174.75361003705814,
        "RAAN(deg)": 60.007407733454635,
        "Satellite Name": "Starlink Shell 3 1721",
        "Satellite Number": 1721,
        "Semi-Major Axis(m)": 6938478.169268562,
        "Time(s)": 710
    },
    {
        "Altitude(m)": 565980.077859113,
        "Argument of Periapsis(deg)": -0.02855136098901778,
        "Eccentricity": 0.0,
        "Inclination(deg)": 97.0,
        "Latitude(deg)": 4.522173334837959,
        "Longitude(deg)": 137.58339155390098,
        "Mean Anomaly(deg)": 175.37908623476318,
        "RAAN(deg)": 60.00751206772864,
        "Satellite Name": "Starlink Shell 3 1721",
        "Satellite Number": 1721,
        "Semi-Major Axis(m)": 6938478.169268562,
        "Time(s)": 720
    },
    {
        "Altitude(m)": 566032.0380126027,
        "Argument of Periapsis(deg)": -0.028947907669420805,
        "Eccentricity": 0.0,
        "Inclination(deg)": 97.0,
        "Latitude(deg)": 3.8977503311143678,
        "Longitude(deg)": 137.46504707624925,
        "Mean Anomaly(deg)": 176.0045624324682,
        "RAAN(deg)": 60.007616402002654,
        "Satellite Name": "Starlink Shell 3 1721",
        "Satellite Number": 1721,
        "Semi-Major Axis(m)": 6938478.169268562,
        "Time(s)": 730
    },
    {
        "Altitude(m)": 566088.3140287094,
        "Argument of Periapsis(deg)": -0.029344454349823825,
        "Eccentricity": 0.0,
        "Inclination(deg)": 97.0,
        "Latitude(deg)": 3.273323240140908,
        "Longitude(deg)": 137.34681672279925,
        "Mean Anomaly(deg)": 176.63003863017323,
        "RAAN(deg)": 60.00772073627665,
        "Satellite Name": "Starlink Shell 3 1721",
        "Satellite Number": 1721,
        "Semi-Major Axis(m)": 6938478.169268562,
        "Time(s)": 740
    },
    {
        "Altitude(m)": 566148.907895281,
        "Argument of Periapsis(deg)": -0.029741001030226845,
        "Eccentricity": 0.0,
        "Inclination(deg)": 97.0,
        "Latitude(deg)": 2.6488950726757947,
        "Longitude(deg)": 137.22868215388047,
        "Mean Anomaly(deg)": 177.25551482787827,
        "RAAN(deg)": 60.007825070550666,
        "Satellite Name": "Starlink Shell 3 1721",
        "Satellite Number": 1721,
        "Semi-Major Axis(m)": 6938478.169268562,
        "Time(s)": 750
    }
]